[Satellite]
VERSION=1.1
NAME=GOES 10
NICKNAME=GOES 10
TLE1=1 24786U 97019A   17184.71323045  .00000047  00000-0  00000-0 0  9990
TLE2=2 24786   9.2905  42.9037 0029734 162.4099 197.6694  0.99122187 73646
